OBJECT_NAME,OBJECT_ID,EPOCH,MEAN_MOTION,ECCENTRICITY,INCLINATION,RA_OF_ASC_NODE,ARG_OF_PERICENTER,MEAN_ANOMALY,EPHEMERIS_TYPE,CLASSIFICATION_TYPE,NORAD_CAT_ID,ELEMENT_SET_NO,REV_AT_EPOCH,BSTAR,MEAN_MOTION_DOT,MEAN_MOTION_DDOT
SHIYAN-30 04,2026-048B,2026-06-19T18:30:22.633056,14.91830186,.00030126,34.9912,252.3633,12.2773,347.8005,0,U,68140,999,1475,.12894683E-3,.1299E-4,0
STARLINK-36604,2026-049A,2026-06-19T14:42:05.042304,15.33447575,.00010289,97.2834,191.8540,69.0757,291.0596,0,U,68142,999,1526,.29068469E-3,.9322E-4,0
STARLINK-36995,2026-049B,2026-06-19T14:18:35.322624,15.33445027,.00011568,97.2863,191.8760,103.6688,256.4684,0,U,68143,999,1526,.54923954E-3,.17698E-3,0
STARLINK-37020,2026-049C,2026-06-19T15:29:03.586560,15.33455770,.00003031,97.2853,191.9623,107.0322,253.0954,0,U,68144,999,1527,.37140138E-3,.11938E-3,0
STARLINK-36244,2026-049D,2026-06-19T14:10:45.349824,15.33452422,.00005646,97.2848,191.8842,117.7722,242.3578,0,U,68145,999,1526,.51824627E-3,.16697E-3,0
STARLINK-36980,2026-049E,2026-06-19T15:09:29.674944,15.33443628,.00014758,97.2836,191.9834,92.8296,267.3116,0,U,68146,999,1527,.29244963E-3,.9378E-4,0
STARLINK-37055,2026-049F,2026-06-19T14:26:25.408608,15.33453850,.00012744,97.2839,191.8704,106.7749,253.3634,0,U,68147,999,1526,.49427449E-3,.1592E-3,0
STARLINK-36981,2026-049G,2026-06-19T14:02:55.820256,15.33450281,.00009872,97.2864,191.8903,101.2035,258.9318,0,U,68148,999,1526,.57020915E-3,.18381E-3,0
STARLINK-36992,2026-049H,2026-06-19T15:13:23.508768,15.33477925,.00015111,97.2833,191.9790,96.8680,263.2734,0,U,68149,999,1527,.79039965E-3,.25555E-3,0
STARLINK-37060,2026-049J,2026-06-19T13:51:11.051136,15.33452116,.00010641,97.2829,191.9011,91.7194,268.4170,0,U,68150,999,1526,.42752182E-3,.13755E-3,0
STARLINK-37073,2026-049K,2026-06-19T13:59:01.000608,15.33447969,.00019,97.2828,191.8934,90.8991,269.2470,0,U,68151,999,1526,.6066905E-3,.19564E-3,0
STARLINK-37049,2026-049L,2026-06-19T15:05:33.222336,15.33488345,.00014206,97.2839,191.9833,81.5419,278.5984,0,U,68152,999,1527,.84303277E-3,.27277E-3,0
STARLINK-37072,2026-049M,2026-06-19T20:22:43.011552,15.33444285,.00014994,97.2844,192.1457,90.6050,269.5364,0,U,68153,999,1530,.43196607E-3,.13896E-3,0
STARLINK-36241,2026-049N,2026-06-19T14:53:49.223904,15.33461979,.00004543,97.2814,191.8423,6.5425,353.5823,0,U,68154,999,1526,.43872733E-3,.14123E-3,0
STARLINK-37048,2026-049P,2026-06-19T19:39:38.519712,15.33437810,.00014327,97.2838,192.0359,94.7047,265.4360,0,U,68155,999,1529,.3964769E-3,.12744E-3,0
STARLINK-36313,2026-049Q,2026-06-19T14:49:55.028928,15.33450529,.00011915,97.2835,191.8487,85.0203,275.1175,0,U,68156,999,1526,.44890708E-3,.14448E-3,0
STARLINK-37064,2026-049R,2026-06-19T15:21:14.319648,15.33442084,.00013067,97.2842,191.9712,92.8096,267.3296,0,U,68157,999,1527,.1919586E-3,.6127E-4,0
STARLINK-37069,2026-049S,2026-06-19T14:45:59.692608,15.33470787,.00005605,97.2858,191.8562,43.6413,316.4874,0,U,68158,999,1526,.1199762E-2,.38889E-3,0
STARLINK-37053,2026-049T,2026-06-19T14:14:40.231680,15.33452949,.00001462,97.2855,191.8803,353.0019,7.1222,0,U,68159,999,1526,.51572789E-3,.16615E-3,0
STARLINK-36306,2026-049U,2026-06-19T14:30:21.543264,15.33464032,.00011932,97.2837,191.8647,101.2544,258.8833,0,U,68160,999,1526,.51793922E-3,.16693E-3,0
STARLINK-37057,2026-049V,2026-06-19T14:38:08.885184,15.33442778,.0001126,97.2850,191.8600,30.3680,329.7628,0,U,68161,999,1526,-.66260888E-4,-.2213E-4,0
STARLINK-37013,2026-049W,2026-06-19T14:22:30.108576,15.33458185,.00002922,97.2845,191.8713,1.3111,358.8132,0,U,68162,999,1526,.65204411E-3,.21043E-3,0
STARLINK-36958,2026-049X,2026-06-19T15:01:39.303840,15.33477683,.00010042,97.2845,191.8381,124.7693,235.3644,0,U,68163,999,1526,.10009023E-2,.3241E-3,0
STARLINK-37002,2026-049Y,2026-06-19T14:34:15.308832,15.33451794,.00006226,97.2844,191.8637,79.4142,280.7171,0,U,68164,999,1526,.48905933E-3,.1575E-3,0
STARLINK-36971,2026-049Z,2026-06-19T15:17:19.266720,15.33443059,.00011205,97.2842,191.9741,95.8331,264.3039,0,U,68165,999,1527,.18035021E-3,.5751E-4,0
STARLINK-36273,2026-049AA,2026-06-19T19:41:45.925152,15.33441540,.00016654,97.2843,192.9466,109.7934,250.3489,0,U,68166,999,1535,.36367398E-3,.11683E-3,0
STARLINK-36969,2026-050A,2026-06-19T22:00:01.999584,15.34397026,.00019928,53.1592,150.4406,74.6550,350.9051,0,U,68167,999,590,.13534197E-2,.45626E-3,0
STARLINK-36984,2026-050B,2026-06-19T23:07:41.398176,15.34381048,.00012473,53.1572,150.1603,76.1990,283.9151,0,U,68168,999,1636,.78279454E-3,.26148E-3,0
STARLINK-37077,2026-050C,2026-06-19T22:28:24.215232,15.34402254,.00010214,53.1594,150.6931,59.7286,300.3817,0,U,68169,999,1635,.66568749E-3,.22183E-3,0
STARLINK-37003,2026-050D,2026-06-19T22:00:01.999584,15.34379624,.00008254,53.1604,150.2526,90.7251,67.9177,0,U,68170,999,589,.10883619E-2,.36551E-3,0
