SHIYAN-30 04            
1 68140U 26048B   26170.77109529  .00001299  00000+0  12895-3 0  9993
2 68140  34.9912 252.3633 0003012  12.2773 347.8005 14.91830186 14756
STARLINK-36604          
1 68142U 26049A   26170.61255836  .00009322  00000+0  29068-3 0  9997
2 68142  97.2834 191.8540 0001028  69.0757 291.0596 15.33447575 15269
STARLINK-36995          
1 68143U 26049B   26170.59624216  .00017698  00000+0  54924-3 0  9991
2 68143  97.2863 191.8760 0001156 103.6688 256.4684 15.33445027 15269
STARLINK-37020          
1 68144U 26049C   26170.64518040  .00011938  00000+0  37140-3 0  9997
2 68144  97.2853 191.9623 0000303 107.0322 253.0954 15.33455770 15274
STARLINK-36244          
1 68145U 26049D   26170.59080266  .00016697  00000+0  51825-3 0  9999
2 68145  97.2848 191.8842 0000564 117.7722 242.3578 15.33452422 15265
STARLINK-36980          
1 68146U 26049E   26170.63159346  .00009378  00000+0  29245-3 0  9990
2 68146  97.2836 191.9834 0001475  92.8296 267.3116 15.33443628 15270
STARLINK-37055          
1 68147U 26049F   26170.60168297  .00015920  00000+0  49427-3 0  9997
2 68147  97.2839 191.8704 0001274 106.7749 253.3634 15.33453850 15261
STARLINK-36981          
1 68148U 26049G   26170.58536829  .00018381  00000+0  57021-3 0  9998
2 68148  97.2864 191.8903 0000987 101.2035 258.9318 15.33450281 15264
STARLINK-36992          
1 68149U 26049H   26170.63429987  .00025555  00000+0  79040-3 0  9997
2 68149  97.2833 191.9790 0001511  96.8680 263.2734 15.33477925 15271
STARLINK-37060          
1 68150U 26049J   26170.57721124  .00013755  00000+0  42752-3 0  9999
2 68150  97.2829 191.9011 0001064  91.7194 268.4170 15.33452116 15266
STARLINK-37073          
1 68151U 26049K   26170.58265047  .00019564  00000+0  60669-3 0  9999
2 68151  97.2828 191.8934 0001900  90.8991 269.2470 15.33447969 15265
STARLINK-37049          
1 68152U 26049L   26170.62885674  .00027277  00000+0  84303-3 0  9990
2 68152  97.2839 191.9833 0001420  81.5419 278.5984 15.33488345 15273
STARLINK-37072          
1 68153U 26049M   26170.84910893  .00013896  00000+0  43197-3 0  9995
2 68153  97.2844 192.1457 0001499  90.6050 269.5364 15.33444285 15304
STARLINK-36241          
1 68154U 26049N   26170.62070861  .00014123  00000+0  43873-3 0  9999
2 68154  97.2814 191.8423 0000454   6.5425 353.5823 15.33461979 15261
STARLINK-37048          
1 68155U 26049P   26170.81919583  .00012744  00000+0  39648-3 0  9996
2 68155  97.2838 192.0359 0001432  94.7047 265.4360 15.33437810 15292
STARLINK-36313          
1 68156U 26049Q   26170.61799802  .00014448  00000+0  44891-3 0  9994
2 68156  97.2835 191.8487 0001191  85.0203 275.1175 15.33450529 15269
STARLINK-37064          
1 68157U 26049R   26170.63974907  .00006127  00000+0  19196-3 0  9993
2 68157  97.2842 191.9712 0001306  92.8096 267.3296 15.33442084 15279
STARLINK-37069          
1 68158U 26049S   26170.61527422  .00038889  00000+0  11998-2 0  9999
2 68158  97.2858 191.8562 0000560  43.6413 316.4874 15.33470787 15265
STARLINK-37053          
1 68159U 26049T   26170.59352120  .00016615  00000+0  51573-3 0  9995
2 68159  97.2855 191.8803 0000146 353.0019   7.1222 15.33452949 15262
STARLINK-36306          
1 68160U 26049U   26170.60441601  .00016693  00000+0  51794-3 0  9993
2 68160  97.2837 191.8647 0001193 101.2544 258.8833 15.33464032 15268
STARLINK-37057          
1 68161U 26049V   26170.60982506 -.00002213  00000+0 -66261-4 0  9999
2 68161  97.2850 191.8600 0001126  30.3680 329.7628 15.33442778 15265
STARLINK-37013          
1 68162U 26049W   26170.59895959  .00021043  00000+0  65204-3 0  9998
2 68162  97.2845 191.8713 0000292   1.3111 358.8132 15.33458185 15267
STARLINK-36958          
1 68163U 26049X   26170.62614935  .00032410  00000+0  10009-2 0  9998
2 68163  97.2845 191.8381 0001004 124.7693 235.3644 15.33477683 15267
STARLINK-37002          
1 68164U 26049Y   26170.60712163  .00015750  00000+0  48906-3 0  9995
2 68164  97.2844 191.8637 0000622  79.4142 280.7171 15.33451794 15265
STARLINK-36971          
1 68165U 26049Z   26170.63702855  .00005751  00000+0  18035-3 0  9996
2 68165  97.2842 191.9741 0001120  95.8331 264.3039 15.33443059 15274
STARLINK-36273          
1 68166U 26049AA  26170.82067043  .00011683  00000+0  36367-3 0  9990
2 68166  97.2843 192.9466 0001665 109.7934 250.3489 15.33441540 15355
STARLINK-36969          
1 68167U 26050A   26170.91668981  .00045626  00000+0  13534-2 0  9995
2 68167  53.1592 150.4406 0001992  74.6550 350.9051 15.34397026  5900
STARLINK-36984          
1 68168U 26050B   26170.96367359  .00026148  00000+0  78279-3 0  9992
2 68168  53.1572 150.1603 0001247  76.1990 283.9151 15.34381048 16368
STARLINK-37077          
1 68169U 26050C   26170.93639138  .00022183  00000+0  66569-3 0  9991
2 68169  53.1594 150.6931 0001021  59.7286 300.3817 15.34402254 16352
STARLINK-37003          
1 68170U 26050D   26170.91668981  .00036551  00000+0  10884-2 0  9991
2 68170  53.1604 150.2526 0000825  90.7251  67.9177 15.34379624  5896
